{"type":"FeatureCollection","crs":{"type":"name","properties":{"name":"urn:ogc:def:crs:OGC:1.3:CRS84"}},"features":[{"type":"Feature","properties":{"OBJECTID":1,"CITY":"Portland","COUNTY":"Multnomah","SCHOOL_DIST":"PPS"},"geometry":{"type":"Polygon","coordinates":[[[-122.85,45.4],[-122.81666666666666,45.4],[-122.81666666666666,45.425],[-122.85,45.425],[-122.85,45.4]]]}},{"type":"Feature","properties":{"OBJECTID":2,"CITY":"Beaverton","COUNTY":"Multnomah","SCHOOL_DIST":"Beaverton SD"},"geometry":{"type":"Polygon","coordinates":[[[-122.81666666666666,45.4],[-122.78333333333333,45.4],[-122.78333333333333,45.425],[-122.81666666666666,45.425],[-122.81666666666666,45.4]]]}},{"type":"Feature","properties":{"OBJECTID":3,"CITY":"Gresham","COUNTY":"Multnomah","SCHOOL_DIST":"Gresham-Barlow"},"geometry":{"type":"Polygon","coordinates":[[[-122.78333333333333,45.4],[-122.75,45.4],[-122.75,45.425],[-122.78333333333333,45.425],[-122.78333333333333,45.4]]]}},{"type":"Feature","properties":{"OBJECTID":4,"CITY":"Tigard","COUNTY":"Multnomah","SCHOOL_DIST":"Tigard-Tualatin"},"geometry":{"type":"Polygon","coordinates":[[[-122.75,45.4],[-122.71666666666667,45.4],[-122.71666666666667,45.425],[-122.75,45.425],[-122.75,45.4]]]}},{"type":"Feature","properties":{"OBJECTID":5,"CITY":"Hillsboro","COUNTY":"Washington","SCHOOL_DIST":"North Clackamas"},"geometry":{"type":"Polygon","coordinates":[[[-122.71666666666667,45.4],[-122.68333333333334,45.4],[-122.68333333333334,45.425],[-122.71666666666667,45.425],[-122.71666666666667,45.4]]]}},{"type":"Feature","properties":{"OBJECTID":6,"CITY":"Portland","COUNTY":"Washington","SCHOOL_DIST":"PPS"},"geometry":{"type":"Polygon","coordinates":[[[-122.68333333333334,45.4],[-122.65,45.4],[-122.65,45.425],[-122.68333333333334,45.425],[-122.68333333333334,45.4]]]}},{"type":"Feature","properties":{"OBJECTID":7,"CITY":"Beaverton","COUNTY":"Washington","SCHOOL_DIST":"Beaverton SD"},"geometry":{"type":"Polygon","coordinates":[[[-122.65,45.4],[-122.61666666666667,45.4],[-122.61666666666667,45.425],[-122.65,45.425],[-122.65,45.4]]]}},{"type":"Feature","properties":{"OBJECTID":8,"CITY":"Gresham","COUNTY":"Washington","SCHOOL_DIST":"Gresham-Barlow"},"geometry":{"type":"Polygon","coordinates":[[[-122.61666666666666,45.4],[-122.58333333333333,45.4],[-122.58333333333333,45.425],[-122.61666666666666,45.425],[-122.61666666666666,45.4]]]}},{"type":"Feature","properties":{"OBJECTID":9,"CITY":"Tigard","COUNTY":"Clackamas","SCHOOL_DIST":"Tigard-Tualatin"},"geometry":{"type":"Polygon","coordinates":[[[-122.58333333333333,45.4],[-122.55,45.4],[-122.55,45.425],[-122.58333333333333,45.425],[-122.58333333333333,45.4]]]}},{"type":"Feature","properties":{"OBJECTID":10,"CITY":"Hillsboro","COUNTY":"Clackamas","SCHOOL_DIST":"North Clackamas"},"geometry":{"type":"Polygon","coordinates":[[[-122.55,45.4],[-122.51666666666667,45.4],[-122.51666666666667,45.425],[-122.55,45.425],[-122.55,45.4]]]}},{"type":"Feature","properties":{"OBJECTID":11,"CITY":"Portland","COUNTY":"Clackamas","SCHOOL_DIST":"PPS"},"geometry":{"type":"Polygon","coordinates":[[[-122.51666666666667,45.4],[-122.48333333333333,45.4],[-122.48333333333333,45.425],[-122.51666666666667,45.425],[-122.51666666666667,45.4]]]}},{"type":"Feature","properties":{"OBJECTID":12,"CITY":"Beaverton","COUNTY":"Clackamas","SCHOOL_DIST":"Beaverton SD"},"geometry":{"type":"Polygon","coordinates":[[[-122.48333333333333,45.4],[-122.45,45.4],[-122.45,45.425],[-122.48333333333333,45.425],[-122.48333333333333,45.4]]]}},{"type":"Feature","properties":{"OBJECTID":13,"CITY":"Beaverton","COUNTY":"Multnomah","SCHOOL_DIST":"Tigard-Tualatin"},"geometry":{"type":"Polygon","coordinates":[[[-122.85,45.425],[-122.81666666666666,45.425],[-122.81666666666666,45.449999999999996],[-122.85,45.449999999999996],[-122.85,45.425]]]}},{"type":"Feature","properties":{"OBJECTID":14,"CITY":"Gresham","COUNTY":"Multnomah","SCHOOL_DIST":"North Clackamas"},"geometry":{"type":"Polygon","coordinates":[[[-122.81666666666666,45.425],[-122.78333333333333,45.425],[-122.78333333333333,45.449999999999996],[-122.81666666666666,45.449999999999996],[-122.81666666666666,45.425]]]}},{"type":"Feature","properties":{"OBJECTID":15,"CITY":"Tigard","COUNTY":"Multnomah","SCHOOL_DIST":"PPS"},"geometry":{"type":"Polygon","coordinates":[[[-122.78333333333333,45.425],[-122.75,45.425],[-122.75,45.449999999999996],[-122.78333333333333,45.449999999999996],[-122.78333333333333,45.425]]]}},{"type":"Feature","properties":{"OBJECTID":16,"CITY":"Hillsboro","COUNTY":"Multnomah","SCHOOL_DIST":"Beaverton SD"},"geometry":{"type":"Polygon","coordinates":[[[-122.75,45.425],[-122.71666666666667,45.425],[-122.71666666666667,45.449999999999996],[-122.75,45.449999999999996],[-122.75,45.425]]]}},{"type":"Feature","properties":{"OBJECTID":17,"CITY":"Portland","COUNTY":"Washington","SCHOOL_DIST":"Gresham-Barlow"},"geometry":{"type":"Polygon","coordinates":[[[-122.71666666666667,45.425],[-122.68333333333334,45.425],[-122.68333333333334,45.449999999999996],[-122.71666666666667,45.449999999999996],[-122.71666666666667,45.425]]]}},{"type":"Feature","properties":{"OBJECTID":18,"CITY":"Beaverton","COUNTY":"Washington","SCHOOL_DIST":"Tigard-Tualatin"},"geometry":{"type":"Polygon","coordinates":[[[-122.68333333333334,45.425],[-122.65,45.425],[-122.65,45.449999999999996],[-122.68333333333334,45.449999999999996],[-122.68333333333334,45.425]]]}},{"type":"Feature","properties":{"OBJECTID":19,"CITY":"Gresham","COUNTY":"Washington","SCHOOL_DIST":"North Clackamas"},"geometry":{"type":"Polygon","coordinates":[[[-122.65,45.425],[-122.61666666666667,45.425],[-122.61666666666667,45.449999999999996],[-122.65,45.449999999999996],[-122.65,45.425]]]}},{"type":"Feature","properties":{"OBJECTID":20,"CITY":"Tigard","COUNTY":"Washington","SCHOOL_DIST":"PPS"},"geometry":{"type":"Polygon","coordinates":[[[-122.61666666666666,45.425],[-122.58333333333333,45.425],[-122.58333333333333,45.449999999999996],[-122.61666666666666,45.449999999999996],[-122.61666666666666,45.425]]]}},{"type":"Feature","properties":{"OBJECTID":21,"CITY":"Hillsboro","COUNTY":"Clackamas","SCHOOL_DIST":"Beaverton SD"},"geometry":{"type":"Polygon","coordinates":[[[-122.58333333333333,45.425],[-122.55,45.425],[-122.55,45.449999999999996],[-122.58333333333333,45.449999999999996],[-122.58333333333333,45.425]]]}},{"type":"Feature","properties":{"OBJECTID":22,"CITY":"Portland","COUNTY":"Clackamas","SCHOOL_DIST":"Gresham-Barlow"},"geometry":{"type":"Polygon","coordinates":[[[-122.55,45.425],[-122.51666666666667,45.425],[-122.51666666666667,45.449999999999996],[-122.55,45.449999999999996],[-122.55,45.425]]]}},{"type":"Feature","properties":{"OBJECTID":23,"CITY":"Beaverton","COUNTY":"Clackamas","SCHOOL_DIST":"Tigard-Tualatin"},"geometry":{"type":"Polygon","coordinates":[[[-122.51666666666667,45.425],[-122.48333333333333,45.425],[-122.48333333333333,45.449999999999996],[-122.51666666666667,45.449999999999996],[-122.51666666666667,45.425]]]}},{"type":"Feature","properties":{"OBJECTID":24,"CITY":"Gresham","COUNTY":"Clackamas","SCHOOL_DIST":"North Clackamas"},"geometry":{"type":"Polygon","coordinates":[[[-122.48333333333333,45.425],[-122.45,45.425],[-122.45,45.449999999999996],[-122.48333333333333,45.449999999999996],[-122.48333333333333,45.425]]]}},{"type":"Feature","properties":{"OBJECTID":25,"CITY":"Gresham","COUNTY":"Multnomah","SCHOOL_DIST":"Beaverton SD"},"geometry":{"type":"Polygon","coordinates":[[[-122.85,45.449999999999996],[-122.81666666666666,45.449999999999996],[-122.81666666666666,45.474999999999994],[-122.85,45.474999999999994],[-122.85,45.449999999999996]]]}},{"type":"Feature","properties":{"OBJECTID":26,"CITY":"Tigard","COUNTY":"Multnomah","SCHOOL_DIST":"Gresham-Barlow"},"geometry":{"type":"Polygon","coordinates":[[[-122.81666666666666,45.449999999999996],[-122.78333333333333,45.449999999999996],[-122.78333333333333,45.474999999999994],[-122.81666666666666,45.474999999999994],[-122.81666666666666,45.449999999999996]]]}},{"type":"Feature","properties":{"OBJECTID":27,"CITY":"Hillsboro","COUNTY":"Multnomah","SCHOOL_DIST":"Tigard-Tualatin"},"geometry":{"type":"Polygon","coordinates":[[[-122.78333333333333,45.449999999999996],[-122.75,45.449999999999996],[-122.75,45.474999999999994],[-122.78333333333333,45.474999999999994],[-122.78333333333333,45.449999999999996]]]}},{"type":"Feature","properties":{"OBJECTID":28,"CITY":"Portland","COUNTY":"Multnomah","SCHOOL_DIST":"North Clackamas"},"geometry":{"type":"Polygon","coordinates":[[[-122.75,45.449999999999996],[-122.71666666666667,45.449999999999996],[-122.71666666666667,45.474999999999994],[-122.75,45.474999999999994],[-122.75,45.449999999999996]]]}},{"type":"Feature","properties":{"OBJECTID":29,"CITY":"Beaverton","COUNTY":"Washington","SCHOOL_DIST":"PPS"},"geometry":{"type":"Polygon","coordinates":[[[-122.71666666666667,45.449999999999996],[-122.68333333333334,45.449999999999996],[-122.68333333333334,45.474999999999994],[-122.71666666666667,45.474999999999994],[-122.71666666666667,45.449999999999996]]]}},{"type":"Feature","properties":{"OBJECTID":30,"CITY":"Gresham","COUNTY":"Washington","SCHOOL_DIST":"Beaverton SD"},"geometry":{"type":"Polygon","coordinates":[[[-122.68333333333334,45.449999999999996],[-122.65,45.449999999999996],[-122.65,45.474999999999994],[-122.68333333333334,45.474999999999994],[-122.68333333333334,45.449999999999996]]]}},{"type":"Feature","properties":{"OBJECTID":31,"CITY":"Tigard","COUNTY":"Washington","SCHOOL_DIST":"Gresham-Barlow"},"geometry":{"type":"Polygon","coordinates":[[[-122.65,45.449999999999996],[-122.61666666666667,45.449999999999996],[-122.61666666666667,45.474999999999994],[-122.65,45.474999999999994],[-122.65,45.449999999999996]]]}},{"type":"Feature","properties":{"OBJECTID":32,"CITY":"Hillsboro","COUNTY":"Washington","SCHOOL_DIST":"Tigard-Tualatin"},"geometry":{"type":"Polygon","coordinates":[[[-122.61666666666666,45.449999999999996],[-122.58333333333333,45.449999999999996],[-122.58333333333333,45.474999999999994],[-122.61666666666666,45.474999999999994],[-122.61666666666666,45.449999999999996]]]}},{"type":"Feature","properties":{"OBJECTID":33,"CITY":"Portland","COUNTY":"Clackamas","SCHOOL_DIST":"North Clackamas"},"geometry":{"type":"Polygon","coordinates":[[[-122.58333333333333,45.449999999999996],[-122.55,45.449999999999996],[-122.55,45.474999999999994],[-122.58333333333333,45.474999999999994],[-122.58333333333333,45.449999999999996]]]}},{"type":"Feature","properties":{"OBJECTID":34,"CITY":"Beaverton","COUNTY":"Clackamas","SCHOOL_DIST":"PPS"},"geometry":{"type":"Polygon","coordinates":[[[-122.55,45.449999999999996],[-122.51666666666667,45.449999999999996],[-122.51666666666667,45.474999999999994],[-122.55,45.474999999999994],[-122.55,45.449999999999996]]]}},{"type":"Feature","properties":{"OBJECTID":35,"CITY":"Gresham","COUNTY":"Clackamas","SCHOOL_DIST":"Beaverton SD"},"geometry":{"type":"Polygon","coordinates":[[[-122.51666666666667,45.449999999999996],[-122.48333333333333,45.449999999999996],[-122.48333333333333,45.474999999999994],[-122.51666666666667,45.474999999999994],[-122.51666666666667,45.449999999999996]]]}},{"type":"Feature","properties":{"OBJECTID":36,"CITY":"Tigard","COUNTY":"Clackamas","SCHOOL_DIST":"Gresham-Barlow"},"geometry":{"type":"Polygon","coordinates":[[[-122.48333333333333,45.449999999999996],[-122.45,45.449999999999996],[-122.45,45.474999999999994],[-122.48333333333333,45.474999999999994],[-122.48333333333333,45.449999999999996]]]}},{"type":"Feature","properties":{"OBJECTID":37,"CITY":"Tigard","COUNTY":"Multnomah","SCHOOL_DIST":"North Clackamas"},"geometry":{"type":"Polygon","coordinates":[[[-122.85,45.475],[-122.81666666666666,45.475],[-122.81666666666666,45.5],[-122.85,45.5],[-122.85,45.475]]]}},{"type":"Feature","properties":{"OBJECTID":38,"CITY":"Hillsboro","COUNTY":"Multnomah","SCHOOL_DIST":"PPS"},"geometry":{"type":"Polygon","coordinates":[[[-122.81666666666666,45.475],[-122.78333333333333,45.475],[-122.78333333333333,45.5],[-122.81666666666666,45.5],[-122.81666666666666,45.475]]]}},{"type":"Feature","properties":{"OBJECTID":39,"CITY":"Portland","COUNTY":"Multnomah","SCHOOL_DIST":"Beaverton SD"},"geometry":{"type":"Polygon","coordinates":[[[-122.78333333333333,45.475],[-122.75,45.475],[-122.75,45.5],[-122.78333333333333,45.5],[-122.78333333333333,45.475]]]}},{"type":"Feature","properties":{"OBJECTID":40,"CITY":"Beaverton","COUNTY":"Multnomah","SCHOOL_DIST":"Gresham-Barlow"},"geometry":{"type":"Polygon","coordinates":[[[-122.75,45.475],[-122.71666666666667,45.475],[-122.71666666666667,45.5],[-122.75,45.5],[-122.75,45.475]]]}},{"type":"Feature","properties":{"OBJECTID":41,"CITY":"Gresham","COUNTY":"Washington","SCHOOL_DIST":"Tigard-Tualatin"},"geometry":{"type":"Polygon","coordinates":[[[-122.71666666666667,45.475],[-122.68333333333334,45.475],[-122.68333333333334,45.5],[-122.71666666666667,45.5],[-122.71666666666667,45.475]]]}},{"type":"Feature","properties":{"OBJECTID":42,"CITY":"Tigard","COUNTY":"Washington","SCHOOL_DIST":"North Clackamas"},"geometry":{"type":"Polygon","coordinates":[[[-122.68333333333334,45.475],[-122.65,45.475],[-122.65,45.5],[-122.68333333333334,45.5],[-122.68333333333334,45.475]]]}},{"type":"Feature","properties":{"OBJECTID":43,"CITY":"Hillsboro","COUNTY":"Washington","SCHOOL_DIST":"PPS"},"geometry":{"type":"Polygon","coordinates":[[[-122.65,45.475],[-122.61666666666667,45.475],[-122.61666666666667,45.5],[-122.65,45.5],[-122.65,45.475]]]}},{"type":"Feature","properties":{"OBJECTID":44,"CITY":"Portland","COUNTY":"Washington","SCHOOL_DIST":"Beaverton SD"},"geometry":{"type":"Polygon","coordinates":[[[-122.61666666666666,45.475],[-122.58333333333333,45.475],[-122.58333333333333,45.5],[-122.61666666666666,45.5],[-122.61666666666666,45.475]]]}},{"type":"Feature","properties":{"OBJECTID":45,"CITY":"Beaverton","COUNTY":"Clackamas","SCHOOL_DIST":"Gresham-Barlow"},"geometry":{"type":"Polygon","coordinates":[[[-122.58333333333333,45.475],[-122.55,45.475],[-122.55,45.5],[-122.58333333333333,45.5],[-122.58333333333333,45.475]]]}},{"type":"Feature","properties":{"OBJECTID":46,"CITY":"Gresham","COUNTY":"Clackamas","SCHOOL_DIST":"Tigard-Tualatin"},"geometry":{"type":"Polygon","coordinates":[[[-122.55,45.475],[-122.51666666666667,45.475],[-122.51666666666667,45.5],[-122.55,45.5],[-122.55,45.475]]]}},{"type":"Feature","properties":{"OBJECTID":47,"CITY":"Tigard","COUNTY":"Clackamas","SCHOOL_DIST":"North Clackamas"},"geometry":{"type":"Polygon","coordinates":[[[-122.51666666666667,45.475],[-122.48333333333333,45.475],[-122.48333333333333,45.5],[-122.51666666666667,45.5],[-122.51666666666667,45.475]]]}},{"type":"Feature","properties":{"OBJECTID":48,"CITY":"Hillsboro","COUNTY":"Clackamas","SCHOOL_DIST":"PPS"},"geometry":{"type":"Polygon","coordinates":[[[-122.48333333333333,45.475],[-122.45,45.475],[-122.45,45.5],[-122.48333333333333,45.5],[-122.48333333333333,45.475]]]}},{"type":"Feature","properties":{"OBJECTID":49,"CITY":"Hillsboro","COUNTY":"Multnomah","SCHOOL_DIST":"Gresham-Barlow"},"geometry":{"type":"Polygon","coordinates":[[[-122.85,45.5],[-122.81666666666666,45.5],[-122.81666666666666,45.525],[-122.85,45.525],[-122.85,45.5]]]}},{"type":"Feature","properties":{"OBJECTID":50,"CITY":"Portland","COUNTY":"Multnomah","SCHOOL_DIST":"Tigard-Tualatin"},"geometry":{"type":"Polygon","coordinates":[[[-122.81666666666666,45.5],[-122.78333333333333,45.5],[-122.78333333333333,45.525],[-122.81666666666666,45.525],[-122.81666666666666,45.5]]]}},{"type":"Feature","properties":{"OBJECTID":51,"CITY":"Beaverton","COUNTY":"Multnomah","SCHOOL_DIST":"North Clackamas"},"geometry":{"type":"Polygon","coordinates":[[[-122.78333333333333,45.5],[-122.75,45.5],[-122.75,45.525],[-122.78333333333333,45.525],[-122.78333333333333,45.5]]]}},{"type":"Feature","properties":{"OBJECTID":52,"CITY":"Gresham","COUNTY":"Multnomah","SCHOOL_DIST":"PPS"},"geometry":{"type":"Polygon","coordinates":[[[-122.75,45.5],[-122.71666666666667,45.5],[-122.71666666666667,45.525],[-122.75,45.525],[-122.75,45.5]]]}},{"type":"Feature","properties":{"OBJECTID":53,"CITY":"Tigard","COUNTY":"Washington","SCHOOL_DIST":"Beaverton SD"},"geometry":{"type":"Polygon","coordinates":[[[-122.71666666666667,45.5],[-122.68333333333334,45.5],[-122.68333333333334,45.525],[-122.71666666666667,45.525],[-122.71666666666667,45.5]]]}},{"type":"Feature","properties":{"OBJECTID":54,"CITY":"Hillsboro","COUNTY":"Washington","SCHOOL_DIST":"Gresham-Barlow"},"geometry":{"type":"Polygon","coordinates":[[[-122.68333333333334,45.5],[-122.65,45.5],[-122.65,45.525],[-122.68333333333334,45.525],[-122.68333333333334,45.5]]]}},{"type":"Feature","properties":{"OBJECTID":55,"CITY":"Portland","COUNTY":"Washington","SCHOOL_DIST":"Tigard-Tualatin"},"geometry":{"type":"Polygon","coordinates":[[[-122.65,45.5],[-122.61666666666667,45.5],[-122.61666666666667,45.525],[-122.65,45.525],[-122.65,45.5]]]}},{"type":"Feature","properties":{"OBJECTID":56,"CITY":"Beaverton","COUNTY":"Washington","SCHOOL_DIST":"North Clackamas"},"geometry":{"type":"Polygon","coordinates":[[[-122.61666666666666,45.5],[-122.58333333333333,45.5],[-122.58333333333333,45.525],[-122.61666666666666,45.525],[-122.61666666666666,45.5]]]}},{"type":"Feature","properties":{"OBJECTID":57,"CITY":"Gresham","COUNTY":"Clackamas","SCHOOL_DIST":"PPS"},"geometry":{"type":"Polygon","coordinates":[[[-122.58333333333333,45.5],[-122.55,45.5],[-122.55,45.525],[-122.58333333333333,45.525],[-122.58333333333333,45.5]]]}},{"type":"Feature","properties":{"OBJECTID":58,"CITY":"Tigard","COUNTY":"Clackamas","SCHOOL_DIST":"Beaverton SD"},"geometry":{"type":"Polygon","coordinates":[[[-122.55,45.5],[-122.51666666666667,45.5],[-122.51666666666667,45.525],[-122.55,45.525],[-122.55,45.5]]]}},{"type":"Feature","properties":{"OBJECTID":59,"CITY":"Hillsboro","COUNTY":"Clackamas","SCHOOL_DIST":"Gresham-Barlow"},"geometry":{"type":"Polygon","coordinates":[[[-122.51666666666667,45.5],[-122.48333333333333,45.5],[-122.48333333333333,45.525],[-122.51666666666667,45.525],[-122.51666666666667,45.5]]]}},{"type":"Feature","properties":{"OBJECTID":60,"CITY":"Portland","COUNTY":"Clackamas","SCHOOL_DIST":"Tigard-Tualatin"},"geometry":{"type":"Polygon","coordinates":[[[-122.48333333333333,45.5],[-122.45,45.5],[-122.45,45.525],[-122.48333333333333,45.525],[-122.48333333333333,45.5]]]}},{"type":"Feature","properties":{"OBJECTID":61,"CITY":"Portland","COUNTY":"Multnomah","SCHOOL_DIST":"PPS"},"geometry":{"type":"Polygon","coordinates":[[[-122.85,45.525],[-122.81666666666666,45.525],[-122.81666666666666,45.55],[-122.85,45.55],[-122.85,45.525]]]}},{"type":"Feature","properties":{"OBJECTID":62,"CITY":"Beaverton","COUNTY":"Multnomah","SCHOOL_DIST":"Beaverton SD"},"geometry":{"type":"Polygon","coordinates":[[[-122.81666666666666,45.525],[-122.78333333333333,45.525],[-122.78333333333333,45.55],[-122.81666666666666,45.55],[-122.81666666666666,45.525]]]}},{"type":"Feature","properties":{"OBJECTID":63,"CITY":"Gresham","COUNTY":"Multnomah","SCHOOL_DIST":"Gresham-Barlow"},"geometry":{"type":"Polygon","coordinates":[[[-122.78333333333333,45.525],[-122.75,45.525],[-122.75,45.55],[-122.78333333333333,45.55],[-122.78333333333333,45.525]]]}},{"type":"Feature","properties":{"OBJECTID":64,"CITY":"Tigard","COUNTY":"Multnomah","SCHOOL_DIST":"Tigard-Tualatin"},"geometry":{"type":"Polygon","coordinates":[[[-122.75,45.525],[-122.71666666666667,45.525],[-122.71666666666667,45.55],[-122.75,45.55],[-122.75,45.525]]]}},{"type":"Feature","properties":{"OBJECTID":65,"CITY":"Hillsboro","COUNTY":"Washington","SCHOOL_DIST":"North Clackamas"},"geometry":{"type":"Polygon","coordinates":[[[-122.71666666666667,45.525],[-122.68333333333334,45.525],[-122.68333333333334,45.55],[-122.71666666666667,45.55],[-122.71666666666667,45.525]]]}},{"type":"Feature","properties":{"OBJECTID":66,"CITY":"Portland","COUNTY":"Washington","SCHOOL_DIST":"PPS"},"geometry":{"type":"Polygon","coordinates":[[[-122.68333333333334,45.525],[-122.65,45.525],[-122.65,45.55],[-122.68333333333334,45.55],[-122.68333333333334,45.525]]]}},{"type":"Feature","properties":{"OBJECTID":67,"CITY":"Beaverton","COUNTY":"Washington","SCHOOL_DIST":"Beaverton SD"},"geometry":{"type":"Polygon","coordinates":[[[-122.65,45.525],[-122.61666666666667,45.525],[-122.61666666666667,45.55],[-122.65,45.55],[-122.65,45.525]]]}},{"type":"Feature","properties":{"OBJECTID":68,"CITY":"Gresham","COUNTY":"Washington","SCHOOL_DIST":"Gresham-Barlow"},"geometry":{"type":"Polygon","coordinates":[[[-122.61666666666666,45.525],[-122.58333333333333,45.525],[-122.58333333333333,45.55],[-122.61666666666666,45.55],[-122.61666666666666,45.525]]]}},{"type":"Feature","properties":{"OBJECTID":69,"CITY":"Tigard","COUNTY":"Clackamas","SCHOOL_DIST":"Tigard-Tualatin"},"geometry":{"type":"Polygon","coordinates":[[[-122.58333333333333,45.525],[-122.55,45.525],[-122.55,45.55],[-122.58333333333333,45.55],[-122.58333333333333,45.525]]]}},{"type":"Feature","properties":{"OBJECTID":70,"CITY":"Hillsboro","COUNTY":"Clackamas","SCHOOL_DIST":"North Clackamas"},"geometry":{"type":"Polygon","coordinates":[[[-122.55,45.525],[-122.51666666666667,45.525],[-122.51666666666667,45.55],[-122.55,45.55],[-122.55,45.525]]]}},{"type":"Feature","properties":{"OBJECTID":71,"CITY":"Portland","COUNTY":"Clackamas","SCHOOL_DIST":"PPS"},"geometry":{"type":"Polygon","coordinates":[[[-122.51666666666667,45.525],[-122.48333333333333,45.525],[-122.48333333333333,45.55],[-122.51666666666667,45.55],[-122.51666666666667,45.525]]]}},{"type":"Feature","properties":{"OBJECTID":72,"CITY":"Beaverton","COUNTY":"Clackamas","SCHOOL_DIST":"Beaverton SD"},"geometry":{"type":"Polygon","coordinates":[[[-122.48333333333333,45.525],[-122.45,45.525],[-122.45,45.55],[-122.48333333333333,45.55],[-122.48333333333333,45.525]]]}},{"type":"Feature","properties":{"OBJECTID":73,"CITY":"Beaverton","COUNTY":"Multnomah","SCHOOL_DIST":"Tigard-Tualatin"},"geometry":{"type":"Polygon","coordinates":[[[-122.85,45.55],[-122.81666666666666,45.55],[-122.81666666666666,45.574999999999996],[-122.85,45.574999999999996],[-122.85,45.55]]]}},{"type":"Feature","properties":{"OBJECTID":74,"CITY":"Gresham","COUNTY":"Multnomah","SCHOOL_DIST":"North Clackamas"},"geometry":{"type":"Polygon","coordinates":[[[-122.81666666666666,45.55],[-122.78333333333333,45.55],[-122.78333333333333,45.574999999999996],[-122.81666666666666,45.574999999999996],[-122.81666666666666,45.55]]]}},{"type":"Feature","properties":{"OBJECTID":75,"CITY":"Tigard","COUNTY":"Multnomah","SCHOOL_DIST":"PPS"},"geometry":{"type":"Polygon","coordinates":[[[-122.78333333333333,45.55],[-122.75,45.55],[-122.75,45.574999999999996],[-122.78333333333333,45.574999999999996],[-122.78333333333333,45.55]]]}},{"type":"Feature","properties":{"OBJECTID":76,"CITY":"Hillsboro","COUNTY":"Multnomah","SCHOOL_DIST":"Beaverton SD"},"geometry":{"type":"Polygon","coordinates":[[[-122.75,45.55],[-122.71666666666667,45.55],[-122.71666666666667,45.574999999999996],[-122.75,45.574999999999996],[-122.75,45.55]]]}},{"type":"Feature","properties":{"OBJECTID":77,"CITY":"Portland","COUNTY":"Washington","SCHOOL_DIST":"Gresham-Barlow"},"geometry":{"type":"Polygon","coordinates":[[[-122.71666666666667,45.55],[-122.68333333333334,45.55],[-122.68333333333334,45.574999999999996],[-122.71666666666667,45.574999999999996],[-122.71666666666667,45.55]]]}},{"type":"Feature","properties":{"OBJECTID":78,"CITY":"Beaverton","COUNTY":"Washington","SCHOOL_DIST":"Tigard-Tualatin"},"geometry":{"type":"Polygon","coordinates":[[[-122.68333333333334,45.55],[-122.65,45.55],[-122.65,45.574999999999996],[-122.68333333333334,45.574999999999996],[-122.68333333333334,45.55]]]}},{"type":"Feature","properties":{"OBJECTID":79,"CITY":"Gresham","COUNTY":"Washington","SCHOOL_DIST":"North Clackamas"},"geometry":{"type":"Polygon","coordinates":[[[-122.65,45.55],[-122.61666666666667,45.55],[-122.61666666666667,45.574999999999996],[-122.65,45.574999999999996],[-122.65,45.55]]]}},{"type":"Feature","properties":{"OBJECTID":80,"CITY":"Tigard","COUNTY":"Washington","SCHOOL_DIST":"PPS"},"geometry":{"type":"Polygon","coordinates":[[[-122.61666666666666,45.55],[-122.58333333333333,45.55],[-122.58333333333333,45.574999999999996],[-122.61666666666666,45.574999999999996],[-122.61666666666666,45.55]]]}},{"type":"Feature","properties":{"OBJECTID":81,"CITY":"Hillsboro","COUNTY":"Clackamas","SCHOOL_DIST":"Beaverton SD"},"geometry":{"type":"Polygon","coordinates":[[[-122.58333333333333,45.55],[-122.55,45.55],[-122.55,45.574999999999996],[-122.58333333333333,45.574999999999996],[-122.58333333333333,45.55]]]}},{"type":"Feature","properties":{"OBJECTID":82,"CITY":"Portland","COUNTY":"Clackamas","SCHOOL_DIST":"Gresham-Barlow"},"geometry":{"type":"Polygon","coordinates":[[[-122.55,45.55],[-122.51666666666667,45.55],[-122.51666666666667,45.574999999999996],[-122.55,45.574999999999996],[-122.55,45.55]]]}},{"type":"Feature","properties":{"OBJECTID":83,"CITY":"Beaverton","COUNTY":"Clackamas","SCHOOL_DIST":"Tigard-Tualatin"},"geometry":{"type":"Polygon","coordinates":[[[-122.51666666666667,45.55],[-122.48333333333333,45.55],[-122.48333333333333,45.574999999999996],[-122.51666666666667,45.574999999999996],[-122.51666666666667,45.55]]]}},{"type":"Feature","properties":{"OBJECTID":84,"CITY":"Gresham","COUNTY":"Clackamas","SCHOOL_DIST":"North Clackamas"},"geometry":{"type":"Polygon","coordinates":[[[-122.48333333333333,45.55],[-122.45,45.55],[-122.45,45.574999999999996],[-122.48333333333333,45.574999999999996],[-122.48333333333333,45.55]]]}},{"type":"Feature","properties":{"OBJECTID":85,"CITY":"Gresham","COUNTY":"Multnomah","SCHOOL_DIST":"Beaverton SD"},"geometry":{"type":"Polygon","coordinates":[[[-122.85,45.574999999999996],[-122.81666666666666,45.574999999999996],[-122.81666666666666,45.599999999999994],[-122.85,45.599999999999994],[-122.85,45.574999999999996]]]}},{"type":"Feature","properties":{"OBJECTID":86,"CITY":"Tigard","COUNTY":"Multnomah","SCHOOL_DIST":"Gresham-Barlow"},"geometry":{"type":"Polygon","coordinates":[[[-122.81666666666666,45.574999999999996],[-122.78333333333333,45.574999999999996],[-122.78333333333333,45.599999999999994],[-122.81666666666666,45.599999999999994],[-122.81666666666666,45.574999999999996]]]}},{"type":"Feature","properties":{"OBJECTID":87,"CITY":"Hillsboro","COUNTY":"Multnomah","SCHOOL_DIST":"Tigard-Tualatin"},"geometry":{"type":"Polygon","coordinates":[[[-122.78333333333333,45.574999999999996],[-122.75,45.574999999999996],[-122.75,45.599999999999994],[-122.78333333333333,45.599999999999994],[-122.78333333333333,45.574999999999996]]]}},{"type":"Feature","properties":{"OBJECTID":88,"CITY":"Portland","COUNTY":"Multnomah","SCHOOL_DIST":"North Clackamas"},"geometry":{"type":"Polygon","coordinates":[[[-122.75,45.574999999999996],[-122.71666666666667,45.574999999999996],[-122.71666666666667,45.599999999999994],[-122.75,45.599999999999994],[-122.75,45.574999999999996]]]}},{"type":"Feature","properties":{"OBJECTID":89,"CITY":"Beaverton","COUNTY":"Washington","SCHOOL_DIST":"PPS"},"geometry":{"type":"Polygon","coordinates":[[[-122.71666666666667,45.574999999999996],[-122.68333333333334,45.574999999999996],[-122.68333333333334,45.599999999999994],[-122.71666666666667,45.599999999999994],[-122.71666666666667,45.574999999999996]]]}},{"type":"Feature","properties":{"OBJECTID":90,"CITY":"Gresham","COUNTY":"Washington","SCHOOL_DIST":"Beaverton SD"},"geometry":{"type":"Polygon","coordinates":[[[-122.68333333333334,45.574999999999996],[-122.65,45.574999999999996],[-122.65,45.599999999999994],[-122.68333333333334,45.599999999999994],[-122.68333333333334,45.574999999999996]]]}},{"type":"Feature","properties":{"OBJECTID":91,"CITY":"Tigard","COUNTY":"Washington","SCHOOL_DIST":"Gresham-Barlow"},"geometry":{"type":"Polygon","coordinates":[[[-122.65,45.574999999999996],[-122.61666666666667,45.574999999999996],[-122.61666666666667,45.599999999999994],[-122.65,45.599999999999994],[-122.65,45.574999999999996]]]}},{"type":"Feature","properties":{"OBJECTID":92,"CITY":"Hillsboro","COUNTY":"Washington","SCHOOL_DIST":"Tigard-Tualatin"},"geometry":{"type":"Polygon","coordinates":[[[-122.61666666666666,45.574999999999996],[-122.58333333333333,45.574999999999996],[-122.58333333333333,45.599999999999994],[-122.61666666666666,45.599999999999994],[-122.61666666666666,45.574999999999996]]]}},{"type":"Feature","properties":{"OBJECTID":93,"CITY":"Portland","COUNTY":"Clackamas","SCHOOL_DIST":"North Clackamas"},"geometry":{"type":"Polygon","coordinates":[[[-122.58333333333333,45.574999999999996],[-122.55,45.574999999999996],[-122.55,45.599999999999994],[-122.58333333333333,45.599999999999994],[-122.58333333333333,45.574999999999996]]]}},{"type":"Feature","properties":{"OBJECTID":94,"CITY":"Beaverton","COUNTY":"Clackamas","SCHOOL_DIST":"PPS"},"geometry":{"type":"Polygon","coordinates":[[[-122.55,45.574999999999996],[-122.51666666666667,45.574999999999996],[-122.51666666666667,45.599999999999994],[-122.55,45.599999999999994],[-122.55,45.574999999999996]]]}},{"type":"Feature","properties":{"OBJECTID":95,"CITY":"Gresham","COUNTY":"Clackamas","SCHOOL_DIST":"Beaverton SD"},"geometry":{"type":"Polygon","coordinates":[[[-122.51666666666667,45.574999999999996],[-122.48333333333333,45.574999999999996],[-122.48333333333333,45.599999999999994],[-122.51666666666667,45.599999999999994],[-122.51666666666667,45.574999999999996]]]}},{"type":"Feature","properties":{"OBJECTID":96,"CITY":"Tigard","COUNTY":"Clackamas","SCHOOL_DIST":"Gresham-Barlow"},"geometry":{"type":"Polygon","coordinates":[[[-122.48333333333333,45.574999999999996],[-122.45,45.574999999999996],[-122.45,45.599999999999994],[-122.48333333333333,45.599999999999994],[-122.48333333333333,45.574999999999996]]]}},{"type":"Feature","properties":{"OBJECTID":97,"CITY":"Tigard","COUNTY":"Multnomah","SCHOOL_DIST":"North Clackamas"},"geometry":{"type":"Polygon","coordinates":[[[-122.85,45.6],[-122.81666666666666,45.6],[-122.81666666666666,45.625],[-122.85,45.625],[-122.85,45.6]]]}},{"type":"Feature","properties":{"OBJECTID":98,"CITY":"Hillsboro","COUNTY":"Multnomah","SCHOOL_DIST":"PPS"},"geometry":{"type":"Polygon","coordinates":[[[-122.81666666666666,45.6],[-122.78333333333333,45.6],[-122.78333333333333,45.625],[-122.81666666666666,45.625],[-122.81666666666666,45.6]]]}},{"type":"Feature","properties":{"OBJECTID":99,"CITY":"Portland","COUNTY":"Multnomah","SCHOOL_DIST":"Beaverton SD"},"geometry":{"type":"Polygon","coordinates":[[[-122.78333333333333,45.6],[-122.75,45.6],[-122.75,45.625],[-122.78333333333333,45.625],[-122.78333333333333,45.6]]]}},{"type":"Feature","properties":{"OBJECTID":100,"CITY":"Beaverton","COUNTY":"Multnomah","SCHOOL_DIST":"Gresham-Barlow"},"geometry":{"type":"Polygon","coordinates":[[[-122.75,45.6],[-122.71666666666667,45.6],[-122.71666666666667,45.625],[-122.75,45.625],[-122.75,45.6]]]}},{"type":"Feature","properties":{"OBJECTID":101,"CITY":"Gresham","COUNTY":"Washington","SCHOOL_DIST":"Tigard-Tualatin"},"geometry":{"type":"Polygon","coordinates":[[[-122.71666666666667,45.6],[-122.68333333333334,45.6],[-122.68333333333334,45.625],[-122.71666666666667,45.625],[-122.71666666666667,45.6]]]}},{"type":"Feature","properties":{"OBJECTID":102,"CITY":"Tigard","COUNTY":"Washington","SCHOOL_DIST":"North Clackamas"},"geometry":{"type":"Polygon","coordinates":[[[-122.68333333333334,45.6],[-122.65,45.6],[-122.65,45.625],[-122.68333333333334,45.625],[-122.68333333333334,45.6]]]}},{"type":"Feature","properties":{"OBJECTID":103,"CITY":"Hillsboro","COUNTY":"Washington","SCHOOL_DIST":"PPS"},"geometry":{"type":"Polygon","coordinates":[[[-122.65,45.6],[-122.61666666666667,45.6],[-122.61666666666667,45.625],[-122.65,45.625],[-122.65,45.6]]]}},{"type":"Feature","properties":{"OBJECTID":104,"CITY":"Portland","COUNTY":"Washington","SCHOOL_DIST":"Beaverton SD"},"geometry":{"type":"Polygon","coordinates":[[[-122.61666666666666,45.6],[-122.58333333333333,45.6],[-122.58333333333333,45.625],[-122.61666666666666,45.625],[-122.61666666666666,45.6]]]}},{"type":"Feature","properties":{"OBJECTID":105,"CITY":"Beaverton","COUNTY":"Clackamas","SCHOOL_DIST":"Gresham-Barlow"},"geometry":{"type":"Polygon","coordinates":[[[-122.58333333333333,45.6],[-122.55,45.6],[-122.55,45.625],[-122.58333333333333,45.625],[-122.58333333333333,45.6]]]}},{"type":"Feature","properties":{"OBJECTID":106,"CITY":"Gresham","COUNTY":"Clackamas","SCHOOL_DIST":"Tigard-Tualatin"},"geometry":{"type":"Polygon","coordinates":[[[-122.55,45.6],[-122.51666666666667,45.6],[-122.51666666666667,45.625],[-122.55,45.625],[-122.55,45.6]]]}},{"type":"Feature","properties":{"OBJECTID":107,"CITY":"Tigard","COUNTY":"Clackamas","SCHOOL_DIST":"North Clackamas"},"geometry":{"type":"Polygon","coordinates":[[[-122.51666666666667,45.6],[-122.48333333333333,45.6],[-122.48333333333333,45.625],[-122.51666666666667,45.625],[-122.51666666666667,45.6]]]}},{"type":"Feature","properties":{"OBJECTID":108,"CITY":"Hillsboro","COUNTY":"Clackamas","SCHOOL_DIST":"PPS"},"geometry":{"type":"Polygon","coordinates":[[[-122.48333333333333,45.6],[-122.45,45.6],[-122.45,45.625],[-122.48333333333333,45.625],[-122.48333333333333,45.6]]]}},{"type":"Feature","properties":{"OBJECTID":109,"CITY":"Hillsboro","COUNTY":"Multnomah","SCHOOL_DIST":"Gresham-Barlow"},"geometry":{"type":"Polygon","coordinates":[[[-122.85,45.625],[-122.81666666666666,45.625],[-122.81666666666666,45.65],[-122.85,45.65],[-122.85,45.625]]]}},{"type":"Feature","properties":{"OBJECTID":110,"CITY":"Portland","COUNTY":"Multnomah","SCHOOL_DIST":"Tigard-Tualatin"},"geometry":{"type":"Polygon","coordinates":[[[-122.81666666666666,45.625],[-122.78333333333333,45.625],[-122.78333333333333,45.65],[-122.81666666666666,45.65],[-122.81666666666666,45.625]]]}},{"type":"Feature","properties":{"OBJECTID":111,"CITY":"Beaverton","COUNTY":"Multnomah","SCHOOL_DIST":"North Clackamas"},"geometry":{"type":"Polygon","coordinates":[[[-122.78333333333333,45.625],[-122.75,45.625],[-122.75,45.65],[-122.78333333333333,45.65],[-122.78333333333333,45.625]]]}},{"type":"Feature","properties":{"OBJECTID":112,"CITY":"Gresham","COUNTY":"Multnomah","SCHOOL_DIST":"PPS"},"geometry":{"type":"Polygon","coordinates":[[[-122.75,45.625],[-122.71666666666667,45.625],[-122.71666666666667,45.65],[-122.75,45.65],[-122.75,45.625]]]}},{"type":"Feature","properties":{"OBJECTID":113,"CITY":"Tigard","COUNTY":"Washington","SCHOOL_DIST":"Beaverton SD"},"geometry":{"type":"Polygon","coordinates":[[[-122.71666666666667,45.625],[-122.68333333333334,45.625],[-122.68333333333334,45.65],[-122.71666666666667,45.65],[-122.71666666666667,45.625]]]}},{"type":"Feature","properties":{"OBJECTID":114,"CITY":"Hillsboro","COUNTY":"Washington","SCHOOL_DIST":"Gresham-Barlow"},"geometry":{"type":"Polygon","coordinates":[[[-122.68333333333334,45.625],[-122.65,45.625],[-122.65,45.65],[-122.68333333333334,45.65],[-122.68333333333334,45.625]]]}},{"type":"Feature","properties":{"OBJECTID":115,"CITY":"Portland","COUNTY":"Washington","SCHOOL_DIST":"Tigard-Tualatin"},"geometry":{"type":"Polygon","coordinates":[[[-122.65,45.625],[-122.61666666666667,45.625],[-122.61666666666667,45.65],[-122.65,45.65],[-122.65,45.625]]]}},{"type":"Feature","properties":{"OBJECTID":116,"CITY":"Beaverton","COUNTY":"Washington","SCHOOL_DIST":"North Clackamas"},"geometry":{"type":"Polygon","coordinates":[[[-122.61666666666666,45.625],[-122.58333333333333,45.625],[-122.58333333333333,45.65],[-122.61666666666666,45.65],[-122.61666666666666,45.625]]]}},{"type":"Feature","properties":{"OBJECTID":117,"CITY":"Gresham","COUNTY":"Clackamas","SCHOOL_DIST":"PPS"},"geometry":{"type":"Polygon","coordinates":[[[-122.58333333333333,45.625],[-122.55,45.625],[-122.55,45.65],[-122.58333333333333,45.65],[-122.58333333333333,45.625]]]}},{"type":"Feature","properties":{"OBJECTID":118,"CITY":"Tigard","COUNTY":"Clackamas","SCHOOL_DIST":"Beaverton SD"},"geometry":{"type":"Polygon","coordinates":[[[-122.55,45.625],[-122.51666666666667,45.625],[-122.51666666666667,45.65],[-122.55,45.65],[-122.55,45.625]]]}},{"type":"Feature","properties":{"OBJECTID":119,"CITY":"Hillsboro","COUNTY":"Clackamas","SCHOOL_DIST":"Gresham-Barlow"},"geometry":{"type":"Polygon","coordinates":[[[-122.51666666666667,45.625],[-122.48333333333333,45.625],[-122.48333333333333,45.65],[-122.51666666666667,45.65],[-122.51666666666667,45.625]]]}},{"type":"Feature","properties":{"OBJECTID":120,"CITY":"Portland","COUNTY":"Clackamas","SCHOOL_DIST":"Tigard-Tualatin"},"geometry":{"type":"Polygon","coordinates":[[[-122.48333333333333,45.625],[-122.45,45.625],[-122.45,45.65],[-122.48333333333333,45.65],[-122.48333333333333,45.625]]]}}]}